[{"OBJECT_NAME":"STARLINK-34892","OBJECT_ID":"2025-189AD","EPOCH":"2025-09-26T22:00:01.999584","MEAN_MOTION":15.39552213,"ECCENTRICITY":0.00014105,"INCLINATION":53.1592,"RA_OF_ASC_NODE":250.2535,"ARG_OF_PERICENTER":96.1414,"MEAN_ANOMALY":234.2935,"EPHEMERIS_TYPE":0,"CLASSIFICATION_TYPE":"U","NORAD_CAT_ID":65350,"ELEMENT_SET_NO":999,"REV_AT_EPOCH":603,"BSTAR":0.0020771324,"MEAN_MOTION_DOT":0.00083411,"MEAN_MOTION_DDOT":0},{"OBJECT_NAME":"STARLINK-34244","OBJECT_ID":"2025-190A","EPOCH":"2025-09-26T22:00:01.999584","MEAN_MOTION":15.39643238,"ECCENTRICITY":0.00011315,"INCLINATION":53.1612,"RA_OF_ASC_NODE":212.0629,"ARG_OF_PERICENTER":119.6181,"MEAN_ANOMALY":340.2424,"EPHEMERIS_TYPE":0,"CLASSIFICATION_TYPE":"U","NORAD_CAT_ID":65351,"ELEMENT_SET_NO":999,"REV_AT_EPOCH":499,"BSTAR":-0.0013033402,"MEAN_MOTION_DOT":-0.00052215,"MEAN_MOTION_DDOT":0},{"OBJECT_NAME":"STARLINK-34716","OBJECT_ID":"2025-190B","EPOCH":"2025-09-26T22:00:01.999584","MEAN_MOTION":15.41212895,"ECCENTRICITY":0.00014601,"INCLINATION":53.1605,"RA_OF_ASC_NODE":210.7706,"ARG_OF_PERICENTER":88.6666,"MEAN_ANOMALY":293.8127,"EPHEMERIS_TYPE":0,"CLASSIFICATION_TYPE":"U","NORAD_CAT_ID":65352,"ELEMENT_SET_NO":999,"REV_AT_EPOCH":499,"BSTAR":-0.044549201,"MEAN_MOTION_DOT":-0.01676514,"MEAN_MOTION_DDOT":0},{"OBJECT_NAME":"STARLINK-34828","OBJECT_ID":"2025-190C","EPOCH":"2025-09-26T22:00:01.999584","MEAN_MOTION":15.4932488,"ECCENTRICITY":0.0001287,"INCLINATION":53.1605,"RA_OF_ASC_NODE":210.6997,"ARG_OF_PERICENTER":95.0931,"MEAN_ANOMALY":323.0733,"EPHEMERIS_TYPE":0,"CLASSIFICATION_TYPE":"U","NORAD_CAT_ID":65353,"ELEMENT_SET_NO":999,"REV_AT_EPOCH":417,"BSTAR":-0.00036682024,"MEAN_MOTION_DOT":-0.00020807,"MEAN_MOTION_DDOT":0},{"OBJECT_NAME":"STARLINK-34785","OBJECT_ID":"2025-190D","EPOCH":"2025-09-26T22:00:01.999584","MEAN_MOTION":15.39574747,"ECCENTRICITY":0.00010556,"INCLINATION":53.1598,"RA_OF_ASC_NODE":210.9214,"ARG_OF_PERICENTER":84.5029,"MEAN_ANOMALY":221.9663,"EPHEMERIS_TYPE":0,"CLASSIFICATION_TYPE":"U","NORAD_CAT_ID":65354,"ELEMENT_SET_NO":999,"REV_AT_EPOCH":422,"BSTAR":0.0010626796,"MEAN_MOTION_DOT":0.00042279,"MEAN_MOTION_DDOT":0},{"OBJECT_NAME":"STARLINK-34823","OBJECT_ID":"2025-190E","EPOCH":"2025-09-26T22:00:01.999584","MEAN_MOTION":15.45819613,"ECCENTRICITY":0.00012083,"INCLINATION":53.1608,"RA_OF_ASC_NODE":210.7036,"ARG_OF_PERICENTER":92.17,"MEAN_ANOMALY":323.587,"EPHEMERIS_TYPE":0,"CLASSIFICATION_TYPE":"U","NORAD_CAT_ID":65355,"ELEMENT_SET_NO":999,"REV_AT_EPOCH":422,"BSTAR":-0.036872251,"MEAN_MOTION_DOT":-0.01628919,"MEAN_MOTION_DDOT":0},{"OBJECT_NAME":"STARLINK-34680","OBJECT_ID":"2025-190F","EPOCH":"2025-09-26T20:10:40.596960","MEAN_MOTION":15.49376806,"ECCENTRICITY":9.346e-5,"INCLINATION":53.1612,"RA_OF_ASC_NODE":211.0525,"ARG_OF_PERICENTER":61.9766,"MEAN_ANOMALY":298.1338,"EPHEMERIS_TYPE":0,"CLASSIFICATION_TYPE":"U","NORAD_CAT_ID":65356,"ELEMENT_SET_NO":999,"REV_AT_EPOCH":417,"BSTAR":0.0018342834,"MEAN_MOTION_DOT":0.0010317,"MEAN_MOTION_DDOT":0},{"OBJECT_NAME":"STARLINK-34860","OBJECT_ID":"2025-190G","EPOCH":"2025-09-26T22:00:01.999584","MEAN_MOTION":15.39575419,"ECCENTRICITY":0.00011478,"INCLINATION":53.1602,"RA_OF_ASC_NODE":211.0243,"ARG_OF_PERICENTER":108.1223,"MEAN_ANOMALY":146.8424,"EPHEMERIS_TYPE":0,"CLASSIFICATION_TYPE":"U","NORAD_CAT_ID":65357,"ELEMENT_SET_NO":999,"REV_AT_EPOCH":422,"BSTAR":0.0011372313,"MEAN_MOTION_DOT":0.00045292,"MEAN_MOTION_DDOT":0},{"OBJECT_NAME":"STARLINK-34782","OBJECT_ID":"2025-190H","EPOCH":"2025-09-26T22:00:01.999584","MEAN_MOTION":15.39579023,"ECCENTRICITY":0.00012113,"INCLINATION":53.1597,"RA_OF_ASC_NODE":210.9725,"ARG_OF_PERICENTER":80.3834,"MEAN_ANOMALY":200.3289,"EPHEMERIS_TYPE":0,"CLASSIFICATION_TYPE":"U","NORAD_CAT_ID":65358,"ELEMENT_SET_NO":999,"REV_AT_EPOCH":422,"BSTAR":0.0010336082,"MEAN_MOTION_DOT":0.00041111,"MEAN_MOTION_DDOT":0},{"OBJECT_NAME":"STARLINK-34760","OBJECT_ID":"2025-190J","EPOCH":"2025-09-26T06:12:40.452192","MEAN_MOTION":15.49350465,"ECCENTRICITY":0.00014873,"INCLINATION":53.1603,"RA_OF_ASC_NODE":213.816,"ARG_OF_PERICENTER":98.7188,"MEAN_ANOMALY":261.3989,"EPHEMERIS_TYPE":0,"CLASSIFICATION_TYPE":"U","NORAD_CAT_ID":65359,"ELEMENT_SET_NO":999,"REV_AT_EPOCH":408,"BSTAR":0.0025304357,"MEAN_MOTION_DOT":0.00143099,"MEAN_MOTION_DDOT":0},{"OBJECT_NAME":"STARLINK-34826","OBJECT_ID":"2025-190K","EPOCH":"2025-09-26T22:00:01.999584","MEAN_MOTION":15.39572539,"ECCENTRICITY":0.00020377,"INCLINATION":53.16,"RA_OF_ASC_NODE":210.869,"ARG_OF_PERICENTER":97.9956,"MEAN_ANOMALY":234.2122,"EPHEMERIS_TYPE":0,"CLASSIFICATION_TYPE":"U","NORAD_CAT_ID":65360,"ELEMENT_SET_NO":999,"REV_AT_EPOCH":422,"BSTAR":0.0012034924,"MEAN_MOTION_DOT":0.00047968,"MEAN_MOTION_DDOT":0},{"OBJECT_NAME":"STARLINK-34800","OBJECT_ID":"2025-190L","EPOCH":"2025-09-26T21:41:05.772192","MEAN_MOTION":15.4933306,"ECCENTRICITY":0.0001092,"INCLINATION":53.1602,"RA_OF_ASC_NODE":210.7312,"ARG_OF_PERICENTER":86.4014,"MEAN_ANOMALY":273.712,"EPHEMERIS_TYPE":0,"CLASSIFICATION_TYPE":"U","NORAD_CAT_ID":65361,"ELEMENT_SET_NO":999,"REV_AT_EPOCH":418,"BSTAR":0.0016398255,"MEAN_MOTION_DOT":0.00091909,"MEAN_MOTION_DDOT":0},{"OBJECT_NAME":"STARLINK-34817","OBJECT_ID":"2025-190M","EPOCH":"2025-09-26T20:07:42.500640","MEAN_MOTION":15.49349485,"ECCENTRICITY":0.00017112,"INCLINATION":53.1605,"RA_OF_ASC_NODE":211.0336,"ARG_OF_PERICENTER":118.3436,"MEAN_ANOMALY":241.7746,"EPHEMERIS_TYPE":0,"CLASSIFICATION_TYPE":"U","NORAD_CAT_ID":65362,"ELEMENT_SET_NO":999,"REV_AT_EPOCH":464,"BSTAR":0.0025760891,"MEAN_MOTION_DOT":0.00145734,"MEAN_MOTION_DDOT":0},{"OBJECT_NAME":"STARLINK-34797","OBJECT_ID":"2025-190N","EPOCH":"2025-09-26T22:00:01.999584","MEAN_MOTION":15.39699065,"ECCENTRICITY":0.00012351,"INCLINATION":53.1602,"RA_OF_ASC_NODE":210.817,"ARG_OF_PERICENTER":99.3039,"MEAN_ANOMALY":258.4977,"EPHEMERIS_TYPE":0,"CLASSIFICATION_TYPE":"U","NORAD_CAT_ID":65363,"ELEMENT_SET_NO":999,"REV_AT_EPOCH":422,"BSTAR":-0.0022661244,"MEAN_MOTION_DOT":-0.00090211,"MEAN_MOTION_DDOT":0},{"OBJECT_NAME":"STARLINK-34729","OBJECT_ID":"2025-190P","EPOCH":"2025-09-26T22:00:01.999584","MEAN_MOTION":15.42009209,"ECCENTRICITY":0.00012738,"INCLINATION":53.1605,"RA_OF_ASC_NODE":210.7144,"ARG_OF_PERICENTER":61.3071,"MEAN_ANOMALY":347.8371,"EPHEMERIS_TYPE":0,"CLASSIFICATION_TYPE":"U","NORAD_CAT_ID":65364,"ELEMENT_SET_NO":999,"REV_AT_EPOCH":514,"BSTAR":-0.054626496,"MEAN_MOTION_DOT":-0.02095601,"MEAN_MOTION_DDOT":0},{"OBJECT_NAME":"STARLINK-34710","OBJECT_ID":"2025-190Q","EPOCH":"2025-09-26T22:00:01.999584","MEAN_MOTION":15.3957734,"ECCENTRICITY":0.00012967,"INCLINATION":53.1599,"RA_OF_ASC_NODE":210.9671,"ARG_OF_PERICENTER":87.968,"MEAN_ANOMALY":194.5843,"EPHEMERIS_TYPE":0,"CLASSIFICATION_TYPE":"U","NORAD_CAT_ID":65365,"ELEMENT_SET_NO":999,"REV_AT_EPOCH":422,"BSTAR":0.00097112143,"MEAN_MOTION_DOT":0.00038587,"MEAN_MOTION_DDOT":0}]
