STARLINK-34892          
1 65350U 25189AD  25269.91668981  .00083411  00000+0  20771-2 0  9991
2 65350  53.1592 250.2535 0001410  96.1414 234.2935 15.39552213  6032
STARLINK-34244          
1 65351U 25190A   25269.91668981 -.00052215  00000+0 -13033-2 0  9997
2 65351  53.1612 212.0629 0001131 119.6181 340.2424 15.39643238  4990
STARLINK-34716          
1 65352U 25190B   25269.91668981 -.01676514  00000+0 -44549-1 0  9998
2 65352  53.1605 210.7706 0001460  88.6666 293.8127 15.41212895  4999
STARLINK-34828          
1 65353U 25190C   25269.91668981 -.00020807  00000+0 -36682-3 0  9997
2 65353  53.1605 210.6997 0001287  95.0931 323.0733 15.49324880  4170
STARLINK-34785          
1 65354U 25190D   25269.91668981  .00042279  00000+0  10627-2 0  9993
2 65354  53.1598 210.9214 0001055  84.5029 221.9663 15.39574747  4223
STARLINK-34823          
1 65355U 25190E   25269.91668981 -.01628919  00000+0 -36872-1 0  9997
2 65355  53.1608 210.7036 0001208  92.1700 323.5870 15.45819613  4227
STARLINK-34680          
1 65356U 25190F   25269.84074765  .00103170  00000+0  18343-2 0  9999
2 65356  53.1612 211.0525 0000934  61.9766 298.1338 15.49376806  4177
STARLINK-34860          
1 65357U 25190G   25269.91668981  .00045292  00000+0  11372-2 0  9992
2 65357  53.1602 211.0243 0001147 108.1223 146.8424 15.39575419  4224
STARLINK-34782          
1 65358U 25190H   25269.91668981  .00041111  00000+0  10336-2 0  9998
2 65358  53.1597 210.9725 0001211  80.3834 200.3289 15.39579023  4222
STARLINK-34760          
1 65359U 25190J   25269.25880153  .00143099  00000+0  25304-2 0  9992
2 65359  53.1603 213.8160 0001487  98.7188 261.3989 15.49350465  4082
STARLINK-34826          
1 65360U 25190K   25269.91668981  .00047968  00000+0  12035-2 0  9995
2 65360  53.1600 210.8690 0002037  97.9956 234.2122 15.39572539  4223
STARLINK-34800          
1 65361U 25190L   25269.90353903  .00091909  00000+0  16398-2 0  9990
2 65361  53.1602 210.7312 0001092  86.4014 273.7120 15.49333060  4180
STARLINK-34817          
1 65362U 25190M   25269.83868635  .00145734  00000+0  25761-2 0  9996
2 65362  53.1605 211.0336 0001711 118.3436 241.7746 15.49349485  4643
STARLINK-34797          
1 65363U 25190N   25269.91668981 -.00090211  00000+0 -22661-2 0  9995
2 65363  53.1602 210.8170 0001235  99.3039 258.4977 15.39699065  4228
STARLINK-34729          
1 65364U 25190P   25269.91668981 -.02095601  00000+0 -54626-1 0  9991
2 65364  53.1605 210.7144 0001273  61.3071 347.8371 15.42009209  5141
STARLINK-34710          
1 65365U 25190Q   25269.91668981  .00038587  00000+0  97112-3 0  9997
2 65365  53.1599 210.9671 0001296  87.9680 194.5843 15.39577340  4227
